{
  "type": "FeatureCollection",
  "features": [
    {
      "type": "Feature",
      "properties": {
        "norad_id": 28051,
        "name": "IRS-P6 (RESOURCESAT-1)",
        "group": "resource",
        "lat": -64.82706519010158,
        "lon": -170.2857989000648,
        "alt_km": 760.4693192756131,
        "timestamp": "2025-12-13T05:42:57.153494+00:00",
        "meta_object_name": "IRS-P6 (RESOURCESAT-1)",
        "meta_object_id": "2003-046A",
        "meta_epoch": "2025-12-12T07:08:50.155872",
        "meta_mean_motion": 14.36074572,
        "meta_eccentricity": 0.00641026,
        "meta_inclination": 98.2177,
        "meta_ra_of_asc_node": 26.7248,
        "meta_arg_of_pericenter": 181.9915,
        "meta_mean_anomaly": 244.6942,
        "meta_ephemeris_type": 0,
        "meta_classification_type": "U",
        "meta_norad_cat_id": 28051,
        "meta_element_set_no": 999,
        "meta_rev_at_epoch": 15370,
        "meta_bstar": 0.00010670886,
        "meta_mean_motion_dot": 2.77e-06,
        "meta_mean_motion_ddot": 0,
        "tle_line1": "1 28051U 03046A   25346.29780273  .00000277  00000+0  10671-3 0  9990",
        "tle_line2": "2 28051  98.2177  26.7248 0064102 181.9915 244.6942 14.36074572153704"
      },
      "geometry": {
        "type": "Point",
        "coordinates": [
          -170.2857989000648,
          -64.82706519010158
        ]
      }
    },
    {
      "type": "Feature",
      "properties": {
        "norad_id": 28220,
        "name": "SHIYAN-1 (SY-1)",
        "group": "resource",
        "lat": -74.10407765224579,
        "lon": 77.96127885691426,
        "alt_km": 485.63635153859923,
        "timestamp": "2025-12-13T05:42:57.153506+00:00",
        "meta_object_name": "SHIYAN-1 (SY-1)",
        "meta_object_id": "2004-012A",
        "meta_epoch": "2025-12-12T03:19:56.357472",
        "meta_mean_motion": 15.2811947,
        "meta_eccentricity": 0.00056815,
        "meta_inclination": 97.8934,
        "meta_ra_of_asc_node": 47.6413,
        "meta_arg_of_pericenter": 327.7572,
        "meta_mean_anomaly": 32.3318,
        "meta_ephemeris_type": 0,
        "meta_classification_type": "U",
        "meta_norad_cat_id": 28220,
        "meta_element_set_no": 999,
        "meta_rev_at_epoch": 18247,
        "meta_bstar": 0.00070987667,
        "meta_mean_motion_dot": 0.00019419,
        "meta_mean_motion_ddot": 0,
        "tle_line1": "1 28220U 04012A   25346.13884673  .00019419  00000+0  70988-3 0  9999",
        "tle_line2": "2 28220  97.8934  47.6413 0005681 327.7572  32.3318 15.28119470182474"
      },
      "geometry": {
        "type": "Point",
        "coordinates": [
          77.96127885691426,
          -74.10407765224579
        ]
      }
    },
    {
      "type": "Feature",
      "properties": {
        "norad_id": 28376,
        "name": "AURA",
        "group": "resource",
        "lat": -16.762711975223144,
        "lon": 114.94109202870493,
        "alt_km": 695.2348221927741,
        "timestamp": "2025-12-13T05:42:57.153518+00:00",
        "meta_object_name": "AURA",
        "meta_object_id": "2004-026A",
        "meta_epoch": "2025-12-12T05:48:19.593216",
        "meta_mean_motion": 14.60945214,
        "meta_eccentricity": 0.00012299,
        "meta_inclination": 98.3184,
        "meta_ra_of_asc_node": 296.4661,
        "meta_arg_of_pericenter": 93.8169,
        "meta_mean_anomaly": 266.3172,
        "meta_ephemeris_type": 0,
        "meta_classification_type": "U",
        "meta_norad_cat_id": 28376,
        "meta_element_set_no": 999,
        "meta_rev_at_epoch": 13891,
        "meta_bstar": 0.00037893916,
        "meta_mean_motion_dot": 1.809e-05,
        "meta_mean_motion_ddot": 0,
        "tle_line1": "1 28376U 04026A   25346.24189344  .00001809  00000+0  37894-3 0  9994",
        "tle_line2": "2 28376  98.3184 296.4661 0001229  93.8169 266.3172 14.60945214138910"
      },
      "geometry": {
        "type": "Point",
        "coordinates": [
          114.94109202870493,
          -16.762711975223144
        ]
      }
    },
    {
      "type": "Feature",
      "properties": {
        "norad_id": 28649,
        "name": "IRS-P5 (CARTOSAT-1)",
        "group": "resource",
        "lat": 75.36117927375261,
        "lon": -135.85642630726866,
        "alt_km": 589.0790520431428,
        "timestamp": "2025-12-13T05:42:57.153529+00:00",
        "meta_object_name": "IRS-P5 (CARTOSAT-1)",
        "meta_object_id": "2005-017A",
        "meta_epoch": "2025-12-12T01:51:55.442592",
        "meta_mean_motion": 14.90400603,
        "meta_eccentricity": 0.00012533,
        "meta_inclination": 97.5498,
        "meta_ra_of_asc_node": 12.5203,
        "meta_arg_of_pericenter": 46.8293,
        "meta_mean_anomaly": 313.303,
        "meta_ephemeris_type": 0,
        "meta_classification_type": "U",
        "meta_norad_cat_id": 28649,
        "meta_element_set_no": 999,
        "meta_rev_at_epoch": 11594,
        "meta_bstar": 0.00028659967,
        "meta_mean_motion_dot": 2.739e-05,
        "meta_mean_motion_ddot": 0,
        "tle_line1": "1 28649U 05017A   25346.07772503  .00002739  00000+0  28660-3 0  9998",
        "tle_line2": "2 28649  97.5498  12.5203 0001253  46.8293 313.3030 14.90400603115949"
      },
      "geometry": {
        "type": "Point",
        "coordinates": [
          -135.85642630726866,
          75.36117927375261
        ]
      }
    },
    {
      "type": "Feature",
      "properties": {
        "norad_id": 28893,
        "name": "SINAH 1",
        "group": "resource",
        "lat": 47.670739204446626,
        "lon": 106.61922020397945,
        "alt_km": 675.5668747133213,
        "timestamp": "2025-12-13T05:42:57.153542+00:00",
        "meta_object_name": "SINAH 1",
        "meta_object_id": "2005-043D",
        "meta_epoch": "2025-12-12T06:31:49.889280",
        "meta_mean_motion": 14.63961879,
        "meta_eccentricity": 0.00153119,
        "meta_inclination": 98.2602,
        "meta_ra_of_asc_node": 114.828,
        "meta_arg_of_pericenter": 138.3711,
        "meta_mean_anomaly": 221.866,
        "meta_ephemeris_type": 0,
        "meta_classification_type": "U",
        "meta_norad_cat_id": 28893,
        "meta_element_set_no": 999,
        "meta_rev_at_epoch": 7317,
        "meta_bstar": 0.00016217286,
        "meta_mean_motion_dot": 8.01e-06,
        "meta_mean_motion_ddot": 0,
        "tle_line1": "1 28893U 05043D   25346.27210520  .00000801  00000+0  16217-3 0  9999",
        "tle_line2": "2 28893  98.2602 114.8280 0015311 138.3711 221.8660 14.63961879 73175"
      },
      "geometry": {
        "type": "Point",
        "coordinates": [
          106.61922020397945,
          47.670739204446626
        ]
      }
    },
    {
      "type": "Feature",
      "properties": {
        "norad_id": 29079,
        "name": "EROS B",
        "group": "resource",
        "lat": -63.79909446859479,
        "lon": -91.36538703478986,
        "alt_km": 369.69711264566195,
        "timestamp": "2025-12-13T05:42:57.153553+00:00",
        "meta_object_name": "EROS B",
        "meta_object_id": "2006-014A",
        "meta_epoch": "2025-12-12T07:14:09.759840",
        "meta_mean_motion": 15.68087281,
        "meta_eccentricity": 0.00020577,
        "meta_inclination": 97.3464,
        "meta_ra_of_asc_node": 102.8538,
        "meta_arg_of_pericenter": 302.4357,
        "meta_mean_anomaly": 57.6705,
        "meta_ephemeris_type": 0,
        "meta_classification_type": "U",
        "meta_norad_cat_id": 29079,
        "meta_element_set_no": 999,
        "meta_rev_at_epoch": 9073,
        "meta_bstar": 0.0017410141,
        "meta_mean_motion_dot": 0.0019735,
        "meta_mean_motion_ddot": 0,
        "tle_line1": "1 29079U 06014A   25346.30150185  .00197350  00000+0  17410-2 0  9990",
        "tle_line2": "2 29079  97.3464 102.8538 0002057 302.4357  57.6705 15.68087281 90732"
      },
      "geometry": {
        "type": "Point",
        "coordinates": [
          -91.36538703478986,
          -63.79909446859479
        ]
      }
    },
    {
      "type": "Feature",
      "properties": {
        "norad_id": 29228,
        "name": "RESURS-DK 1",
        "group": "resource",
        "lat": 53.82205682345306,
        "lon": 130.54214012929913,
        "alt_km": 528.6727320901045,
        "timestamp": "2025-12-13T05:42:57.153564+00:00",
        "meta_object_name": "RESURS-DK 1",
        "meta_object_id": "2006-021A",
        "meta_epoch": "2025-12-12T07:13:42.259584",
        "meta_mean_motion": 15.12156951,
        "meta_eccentricity": 0.00072906,
        "meta_inclination": 69.9331,
        "meta_ra_of_asc_node": 102.9717,
        "meta_arg_of_pericenter": 260.1087,
        "meta_mean_anomaly": 99.9256,
        "meta_ephemeris_type": 0,
        "meta_classification_type": "U",
        "meta_norad_cat_id": 29228,
        "meta_element_set_no": 999,
        "meta_rev_at_epoch": 7431,
        "meta_bstar": 0.0002489462,
        "meta_mean_motion_dot": 4.199e-05,
        "meta_mean_motion_ddot": 0,
        "tle_line1": "1 29228U 06021A   25346.30118356  .00004199  00000+0  24895-3 0  9992",
        "tle_line2": "2 29228  69.9331 102.9717 0007290 260.1087  99.9256 15.12156951 74316"
      },
      "geometry": {
        "type": "Point",
        "coordinates": [
          130.54214012929913,
          53.82205682345306
        ]
      }
    }
  ]
}